        "epoch_iso": '2026-04-13T22:04:57.661248Z',
        "inclination_deg": '92.000400',
        "eccentricity": '0.00034480',
        "mean_motion_rev_per_day": '15.28254322',
        "altitude_m": '481030.676',
    },
    {
        "name": 'HYSIS',
        "norad_catalog_id": '43719',
        "tle_line1": '1 43719U 18096A   26103.92476494  .00000172  00000+0  30506-4 0  9992',
        "tle_line2": '2 43719  97.9884 171.1628 0001188  63.9419 296.1914 14.78645948397925',
        "epoch_iso": '2026-04-13T22:11:39.690816Z',
        "inclination_deg": '97.988400',
        "eccentricity": '0.00011880',
        "mean_motion_rev_per_day": '14.78645948',
        "altitude_m": '633601.480',
    },
    {
        "name": 'KAZSTSAT',
        "norad_catalog_id": '43783',
        "tle_line1": '1 43783U 18099AB  26103.84861656  .00001481  00000+0  12443-3 0  9998',
        "tle_line2": '2 43783  97.4377 138.6747 0002979 240.2565 119.8363 14.99745007401665',
        "epoch_iso": '2026-04-13T20:22:00.470784Z',
        "inclination_deg": '97.437700',
        "eccentricity": '0.00029790',
        "mean_motion_rev_per_day": '14.99745007',
        "altitude_m": '567683.539',
    },
    {
        "name": 'SAUDISAT 5A',
        "norad_catalog_id": '43831',
        "tle_line1": '1 43831U 18102A   26103.97507671  .00003296  00000+0  12545-3 0  9994',
        "tle_line2": '2 43831  97.3125 166.8067 0009790  11.8704 348.2764 15.27405613405870',
        "epoch_iso": '2026-04-13T23:24:06.627744Z',
        "inclination_deg": '97.312500',
        "eccentricity": '0.00097900',
        "mean_motion_rev_per_day": '15.27405613',
        "altitude_m": '483571.323',
    },
    {
        "name": 'SAUDISAT 5B',
        "norad_catalog_id": '43833',
        "tle_line1": '1 43833U 18102C   26103.93995544  .00003104  00000+0  11725-3 0  9999',
        "tle_line2": '2 43833  97.3226 169.7263 0010572  13.5979 346.5544 15.27695229405980',
        "epoch_iso": '2026-04-13T22:33:32.150016Z',
        "inclination_deg": '97.322600',
        "eccentricity": '0.00105720',
        "mean_motion_rev_per_day": '15.27695229',
        "altitude_m": '482704.081',
    },
    {
        "name": 'GAOFEN-10R',
        "norad_catalog_id": '44622',
        "tle_line1": '1 44622U 19066A   26103.98739708  .00000848  00000+0  11127-3 0  9997',
        "tle_line2": '2 44622  98.0448  57.1255 0005574   1.4726 358.6503 14.82916452352865',
        "epoch_iso": '2026-04-13T23:41:51.107712Z',
        "inclination_deg": '98.044800',
        "eccentricity": '0.00055740',
        "mean_motion_rev_per_day": '14.82916452',
        "altitude_m": '620133.404',
    },
    {
        "name": 'CARTOSAT-3',
        "norad_catalog_id": '44804',
        "tle_line1": '1 44804U 19081A   26103.94018655  .00001352  00000+0  67366-4 0  9991',
        "tle_line2": '2 44804  97.4366 166.8204 0012500  22.3961 337.7817 15.19216469353714',
        "epoch_iso": '2026-04-13T22:33:52.117920Z',
        "inclination_deg": '97.436600',
        "eccentricity": '0.00125000',
        "mean_motion_rev_per_day": '15.19216469',
        "altitude_m": '508207.337',
    },
    {
        "name": 'GAOFEN-12 01',
        "norad_catalog_id": '44819',
        "tle_line1": '1 44819U 19082A   26104.00519174  .00000240  00000+0  38029-4 0  9997',
        "tle_line2": '2 44819  97.8128 112.0762 0000774 122.4448 237.6839 14.80406192344593',
        "epoch_iso": '2026-04-14T00:07:28.566336Z',
        "inclination_deg": '97.812800',
        "eccentricity": '0.00007740',
        "mean_motion_rev_per_day": '14.80406192',
        "altitude_m": '628042.277',
    },
    {
        "name": 'CSG-1',
        "norad_catalog_id": '44873',
        "tle_line1": '1 44873U 19092A   26103.98384834  .00000260  00000+0  39173-4 0  9990',
        "tle_line2": '2 44873  97.8885 288.5140 0001227  87.7588 272.3766 14.82160409341967',
        "epoch_iso": '2026-04-13T23:36:44.496576Z',
        "inclination_deg": '97.888500',
        "eccentricity": '0.00012270',
        "mean_motion_rev_per_day": '14.82160409',
        "altitude_m": '622513.058',
    },
    {
        "name": 'NEMO-HD',
        "norad_catalog_id": '46277',
        "tle_line1": '1 46277U 20061F   26103.90076841  .00006304  00000+0  14339-3 0  9997',
        "tle_line2": '2 46277  97.1981 166.5468 0000796 109.3299 250.8035 15.43332337312063',
        "epoch_iso": '2026-04-13T21:37:06.390624Z',
        "inclination_deg": '97.198100',
        "eccentricity": '0.00007960',
        "mean_motion_rev_per_day": '15.43332337',
        "altitude_m": '436282.582',
    },
    {
        "name": 'SENTINEL-6A',
        "norad_catalog_id": '46984',
        "tle_line1": '1 46984U 20086A   26103.90708911 -.00000055  00000+0  27949-4 0  9999',
        "tle_line2": '2 46984  66.0402 268.5625 0007734 270.5162  89.4967 12.80930878252096',
        "epoch_iso": '2026-04-13T21:46:12.499104Z',
        "inclination_deg": '66.040200',
        "eccentricity": '0.00077340',
        "mean_motion_rev_per_day": '12.80930878',
        "altitude_m": '1337729.617',
    },
    {
        "name": 'GAOFEN-12 02',
        "norad_catalog_id": '48079',
        "tle_line1": '1 48079U 21026A   26103.94185373  .00000257  00000+0  40677-4 0  9992',
        "tle_line2": '2 48079  97.9928 102.3896 0006302  84.5923 275.6008 14.80244388272253',
        "epoch_iso": '2026-04-13T22:36:16.162272Z',
        "inclination_deg": '97.992800',
        "eccentricity": '0.00063020',
        "mean_motion_rev_per_day": '14.80244388',
        "altitude_m": '628552.827',
    },
    {
        "name": 'PLEIADES NEO 3',
        "norad_catalog_id": '48268',
        "tle_line1": '1 48268U 21034A   26103.96224166 -.00000034  00000+0  22549-5 0  9990',
        "tle_line2": '2 48268  97.8933 179.6508 0001284  93.5777 266.5583 14.81672073268143',
        "epoch_iso": '2026-04-13T23:05:37.679424Z',
        "inclination_deg": '97.893300',
        "eccentricity": '0.00012840',
        "mean_motion_rev_per_day": '14.81672073',
        "altitude_m": '624051.177',
    },
    {
        "name": 'PLEIADES NEO 4',
        "norad_catalog_id": '49070',
        "tle_line1": '1 49070U 21073E   26103.92847993 -.00000361  00000+0 -39215-4 0  9991',
        "tle_line2": '2 49070  97.8932 179.6137 0001280  92.8039 267.3320 14.81672472251852',
        "epoch_iso": '2026-04-13T22:17:00.665952Z',
        "inclination_deg": '97.893200',
        "eccentricity": '0.00012800',
        "mean_motion_rev_per_day": '14.81672472',
        "altitude_m": '624049.920',
    },
    {
        "name": 'LANDSAT 9',
        "norad_catalog_id": '49260',
        "tle_line1": '1 49260U 21088A   26103.92213628  .00000211  00000+0  56728-4 0  9990',
        "tle_line2": '2 49260  98.1885 175.1284 0001139 100.3231 259.8096 14.57112999241648',
        "epoch_iso": '2026-04-13T22:07:52.574592Z',
        "inclination_deg": '98.188500',
        "eccentricity": '0.00011390',
        "mean_motion_rev_per_day": '14.57112999',
        "altitude_m": '702511.240',
    },
    {
        "name": 'CSG-2',
        "norad_catalog_id": '51444',
        "tle_line1": '1 51444U 22008A   26103.95009058  .00000973  00000+0  12874-3 0  9991',
        "tle_line2": '2 51444  97.8887 288.4775 0001434  84.7880 275.3497 14.82159950227074',
        "epoch_iso": '2026-04-13T22:48:07.826112Z',
        "inclination_deg": '97.888700',
        "eccentricity": '0.00014340',
        "mean_motion_rev_per_day": '14.82159950',
        "altitude_m": '622514.503',
    },
    {
        "name": 'GAOFEN-12 03',
        "norad_catalog_id": '52912',
        "tle_line1": '1 52912U 22069A   26103.95907240  .00000113  00000+0  21656-4 0  9994',
        "tle_line2": '2 52912  97.8359 353.4264 0001854  52.2815 307.8565 14.79930234205115',
        "epoch_iso": '2026-04-13T23:01:03.855360Z',
        "inclination_deg": '97.835900',
        "eccentricity": '0.00018540',
        "mean_motion_rev_per_day": '14.79930234',
        "altitude_m": '629544.361',
    },
    {
        "name": 'SWOT',
        "norad_catalog_id": '54754',
        "tle_line1": '1 54754U 22173A   26103.89380793  .00000036  00000+0  25933-4 0  9993',
        "tle_line2": '2 54754  77.6076 122.1028 0000725 182.9504 177.1643 14.00169265170156',
        "epoch_iso": '2026-04-13T21:27:05.005152Z',
        "inclination_deg": '77.607600',
        "eccentricity": '0.00007250',
        "mean_motion_rev_per_day": '14.00169265',
        "altitude_m": '893209.065',
    },
    {
        "name": 'GAOFEN-12 04',
        "norad_catalog_id": '57654',
        "tle_line1": '1 57654U 23123A   26103.98375925  .00000673  00000+0  95558-4 0  9999',
        "tle_line2": '2 57654  97.9129  22.9280 0001251  82.4673 277.6681 14.80103937143133',
        "epoch_iso": '2026-04-13T23:36:36.799200Z',
        "inclination_deg": '97.912900',
        "eccentricity": '0.00012510',
        "mean_motion_rev_per_day": '14.80103937',
        "altitude_m": '628996.075',
    },
    {
        "name": 'PARS 1',
        "norad_catalog_id": '59065',
        "tle_line1": '1 59065U 24039Q   26103.93803300  .00007425  00000+0  16246-3 0  9990',
        "tle_line2": '2 59065  97.4789  82.9164 0009289   1.0197 359.1069 15.44407028118724',
        "epoch_iso": '2026-04-13T22:30:46.051200Z',
        "inclination_deg": '97.478900',
        "eccentricity": '0.00092890',
        "mean_motion_rev_per_day": '15.44407028',
        "altitude_m": '433120.960',
    },
    {
        "name": 'RESURS-P 4',
        "norad_catalog_id": '59371',
        "tle_line1": '1 59371U 24061A   26103.92644856  .00002294  00000+0  73837-4 0  9992',
        "tle_line2": '2 59371  97.2700  52.9784 0001135 121.5517 238.5837 15.33230775113927',
        "epoch_iso": '2026-04-13T22:14:05.155584Z',
        "inclination_deg": '97.270000',
        "eccentricity": '0.00011350',
        "mean_motion_rev_per_day": '15.33230775',
        "altitude_m": '466180.632',
    },
    {
        "name": 'LEGION 1',
        "norad_catalog_id": '59625',
